NORAD_CAT_ID,OBJECT_NAME,OBJECT_TYPE,EPOCH,MEAN_MOTION,ECCENTRICITY,INCLINATION,RA_OF_ASC_NODE,ARG_OF_PERICENTER,MEAN_ANOMALY,BSTAR,MEAN_MOTION_DOT,MEAN_MOTION_DDOT,TLE_LINE0,TLE_LINE1,TLE_LINE2,SEMIMAJOR_AXIS,PERIOD,APOGEE,PERIGEE,DECAYED
49408.0,STARLINK-3151,PAYLOAD,2023-01-09 06:52:21,15.08842458,0.0001182,53.2171,15.9372,81.3426,278.77,0.00017226,2.455e-05,0.0,0 STARLINK-3151,1 49408U 21104A   23009.28636055  .00002455  00000-0  17226-3 0  9999,2 49408  53.2171  15.9372 0001182  81.3426 278.7700 15.08842458 64207,6917.873000000001,95.437,540.556,538.92,0.0
49408.0,STARLINK-3151,PAYLOAD,2023-01-10 06:43:08,15.08842411,0.0001232,53.2178,11.4768,91.294,268.8194,8.613200000000001e-05,1.083e-05,0.0,0 STARLINK-3151,1 49408U 21104A   23010.27996104  .00001083  00000-0  86132-4 0  9993,2 49408  53.2178  11.4768 0001232  91.2940 268.8194 15.08842411 64353,6917.873000000001,95.437,540.59,538.886,0.0
49408.0,STARLINK-3151,PAYLOAD,2023-01-10 19:26:13,15.08836662,0.0001151,53.2177,9.0978,87.2283,272.8841,0.00014377,2.001e-05,0.0,0 STARLINK-3151,1 49408U 21104A   23010.80988416  .00002001  00000-0  14377-3 0  9991,2 49408  53.2177   9.0978 0001151  87.2283 272.8841 15.08836662 64437,6917.891,95.438,540.552,538.9590000000002,0.0
49408.0,STARLINK-3151,PAYLOAD,2023-01-11 06:33:55,15.08851051,0.0001281999999999,53.2178,7.0163,95.8914,264.2224,0.00025209,3.728e-05,0.0,0 STARLINK-3151,1 49408U 21104A   23011.27355664  .00003728  00000-0  25209-3 0  9999,2 49408  53.2178   7.0163 0001282  95.8914 264.2224 15.08851051 64500,6917.847,95.437,540.5980000000002,538.825,0.0
49408.0,STARLINK-3151,PAYLOAD,2023-01-11 16:06:14,15.08845434,0.0001339,53.2186,5.2328,85.8296,274.2849,0.00016766,2.382e-05,0.0,0 STARLINK-3151,1 49408U 21104A   23011.67099888  .00002382  00000-0  16766-3 0  9999,2 49408  53.2186   5.2328 0001339  85.8296 274.2849 15.08845434 65667,6917.864000000001,95.437,540.655,538.802,0.0
49408.0,STARLINK-3151,PAYLOAD,2023-01-11 20:52:24,15.08826461,0.0001276,53.2179,4.3403,85.3383,274.7755,-0.00011012,-2.039e-05,0.0,0 STARLINK-3151,1 49408U 21104A   23011.86972820 -.00002039  00000-0 -11012-3 0  9996,2 49408  53.2179   4.3403 0001276  85.3383 274.7755 15.08826461 64596,6917.922,95.438,540.669,538.904,0.0
49408.0,STARLINK-3151,PAYLOAD,2023-01-12 01:38:33,15.08831239,0.0001371,53.2175,3.4488,99.0363,261.0784,-5.7387e-05,-1.201e-05,0.0,0 STARLINK-3151,1 49408U 21104A   23012.06844578 -.00001201  00000-0 -57387-4 0  9993,2 49408  53.2175   3.4488 0001371  99.0363 261.0784 15.08831239 65727,6917.906999999998,95.438,540.721,538.8240000000002,0.0
49408.0,STARLINK-3151,PAYLOAD,2023-01-12 17:32:24,15.08839496,0.0001274,53.218,0.4758,89.9152,270.1986,7.049399999999999e-05,8.34e-06,0.0,0 STARLINK-3151,1 49408U 21104A   23012.73084364  .00000834  00000-0  70494-4 0  9999,2 49408  53.2180   0.4758 0001274  89.9152 270.1986 15.08839496 65825,6917.882,95.438,540.628,538.866,0.0
49408.0,STARLINK-3151,PAYLOAD,2023-01-12 22:18:34,15.08843547,0.0001262999999999,53.2181,359.5837,89.2764,270.8373,0.00015065,2.111e-05,0.0,0 STARLINK-3151,1 49408U 21104A   23012.92956294  .00002111  00000-0  15065-3 0  9992,2 49408  53.2181 359.5837 0001263  89.2764 270.8373 15.08843547 64752,6917.87,95.437,540.6080000000002,538.861,0.0
49408.0,STARLINK-3151,PAYLOAD,2023-01-13 06:15:29,15.0884797,0.0001185,53.2178,358.0954,93.7421,266.3707,0.00057654,8.902e-05,0.0,0 STARLINK-3151,1 49408U 21104A   23013.26076334  .00008902  00000-0  57654-3 0  9992,2 49408  53.2178 358.0954 0001185  93.7421 266.3707 15.08847970 64806,6917.856,95.437,540.5409999999999,538.901,0.0
49408.0,STARLINK-3151,PAYLOAD,2023-01-13 22:09:21,15.08838796,0.0001313,53.2174,355.1212,94.3331,265.7811,0.00013199,1.813e-05,0.0,0 STARLINK-3151,1 49408U 21104A   23013.92316622  .00001813  00000-0  13199-3 0  9992,2 49408  53.2174 355.1212 0001313  94.3331 265.7811 15.08838796 64903,6917.884,95.438,540.6569999999999,538.841,0.0
49408.0,STARLINK-3151,PAYLOAD,2023-01-14 04:30:53,15.08842246,0.0001393,53.2169,353.9328,101.2723,258.8426,0.00022687,3.325e-05,0.0,0 STARLINK-3151,1 49408U 21104A   23014.18812474  .00003325  00000-0  22687-3 0  9999,2 49408  53.2169 353.9328 0001393 101.2723 258.8426 15.08842246 66049,6917.874,95.437,540.702,538.775,0.0
49408.0,STARLINK-3151,PAYLOAD,2023-01-14 22:00:08,15.0883839,0.0001406999999999,53.2179,350.6615,86.4245,273.6908,0.00010647,1.407e-05,0.0,0 STARLINK-3151,1 49408U 21104A   23014.91676780  .00001407  00000-0  10647-3 0  9990,2 49408  53.2179 350.6615 0001407  86.4245 273.6908 15.08838390 66159,6917.885,95.438,540.724,538.7769999999999,0.0
49408.0,STARLINK-3151,PAYLOAD,2023-01-15 07:32:26,15.08854935,9.18e-05,53.2187,348.8764,97.4469,262.6627,0.00021945,3.208e-05,0.0,0 STARLINK-3151,1 49408U 21104A   23015.31419679  .00003208  00000-0  21945-3 0  9991,2 49408  53.2187 348.8764 0000918  97.4469 262.6627 15.08854935 66214,6917.835,95.437,540.335,539.065,0.0
49408.0,STARLINK-3151,PAYLOAD,2023-01-15 17:04:45,15.08841657,9.49e-05,53.218,347.0928,90.4794,269.6307,7.8083e-05,9.55e-06,0.0,0 STARLINK-3151,1 49408U 21104A   23015.71164326  .00000955  00000-0  78083-4 0  9993,2 49408  53.2180 347.0928 0000949  90.4794 269.6307 15.08841657 66273,6917.875,95.437,540.3969999999999,539.0840000000001,0.0
49408.0,STARLINK-3151,PAYLOAD,2023-01-16 04:12:27,15.08863349,7.75e-05,53.2184,345.01199999999994,90.5452,269.5629,0.00050965,7.838e-05,0.0,0 STARLINK-3151,1 49408U 21104A   23016.17531314  .00007838  00000-0  50965-3 0  9994,2 49408  53.2184 345.0120 0000775  90.5452 269.5629 15.08863349 66344,6917.809,95.436,540.21,539.138,0.0
49408.0,STARLINK-3151,PAYLOAD,2023-01-16 21:41:42,15.08814611,0.0001568,53.2177,341.7416,8.8475,351.2545,-0.00043042,-7.127e-05,0.0,0 STARLINK-3151,1 49408U 21104A   23016.90396957 -.00007127  00000-0 -43042-3 0  9998,2 49408  53.2177 341.7416 0001568   8.8475 351.2545 15.08814611 66451,6917.9580000000005,95.439,540.908,538.738,0.0
49408.0,STARLINK-3151,PAYLOAD,2023-01-17 04:03:15,15.08825792,0.0001115,53.2177,340.5519,95.7449,264.367,-0.00025475,-4.338e-05,0.0,0 STARLINK-3151,1 49408U 21104A   23017.16892518 -.00004338  00000-0 -25475-3 0  9992,2 49408  53.2177 340.5519 0001115  95.7449 264.3670 15.08825792 66495,6917.924,95.438,540.56,539.0169999999999,0.0
49408.0,STARLINK-3151,PAYLOAD,2023-01-17 07:14:01,15.08829051,0.0001503,53.2164,339.9548,101.3038,258.8123,-0.00015593,-2.768e-05,0.0,0 STARLINK-3151,1 49408U 21104A   23017.30140546 -.00002768  00000-0 -15593-3 0  9990,2 49408  53.2164 339.9548 0001503 101.3038 258.8123 15.08829051 65418,6917.914000000001,95.438,540.819,538.739,0.0
49408.0,STARLINK-3151,PAYLOAD,2023-01-17 16:46:20,15.08828903,0.0001298,53.2169,338.171,99.0367,261.0772,-4.7523e-05,-1.044e-05,0.0,0 STARLINK-3151,1 49408U 21104A   23017.69884743 -.00001044  00000-0 -47523-4 0  9991,2 49408  53.2169 338.1710 0001298  99.0367 261.0772 15.08828903 65471,6917.914000000001,95.438,540.677,538.881,0.0
49408.0,STARLINK-3151,PAYLOAD,2023-01-18 03:54:03,15.08830825,0.0001207,53.218,336.0917,90.7668,269.3462,0.00046152,7.063e-05,0.0,0 STARLINK-3151,1 49408U 21104A   23018.16253536  .00007063  00000-0  46152-3 0  9995,2 49408  53.2180 336.0917 0001207  90.7668 269.3462 15.08830825 66645,6917.908,95.438,540.6080000000001,538.938,0.0
49408.0,STARLINK-3151,PAYLOAD,2023-01-18 19:47:53,15.08876521,0.0001208,53.2181,333.1178,93.2605,266.8525,0.0017331,0.0002743,0.0,0 STARLINK-3151,1 49408U 21104A   23018.82492789  .00027430  00000-0  17331-2 0  9999,2 49408  53.2181 333.1178 0001208  93.2605 266.8525 15.08876521 66749,6917.769,95.435,540.469,538.798,0.0
49408.0,STARLINK-3151,PAYLOAD,2023-01-19 06:55:34,15.089133,0.0001134,53.2183,331.0366,93.0964,267.0158,0.0019324,0.00030662,0.0,0 STARLINK-3151,1 49408U 21104A   23019.28858824  .00030662  00000-0  19324-2 0  9991,2 49408  53.2183 331.0366 0001134  93.0964 267.0158 15.08913300 66811,6917.656,95.433,540.306,538.737,0.0
49408.0,STARLINK-3151,PAYLOAD,2023-01-20 03:35:36,15.08831674,0.0002105,53.218,327.1713,84.0249,276.0983,0.0016492999999999,0.00026052,0.0,0 STARLINK-3151,1 49408U 21104A   23020.14972970  .00026052  00000-0  16493-2 0  9999,2 49408  53.2180 327.1713 0002105  84.0249 276.0983 15.08831674 66948,6917.906,95.438,541.227,538.315,0.0
49408.0,STARLINK-3151,PAYLOAD,2023-01-20 06:46:23,15.08826207,0.0001085999999999,53.2179,326.5769,62.3536,297.7567,0.0015757,0.00024869,0.0,0 STARLINK-3151,1 49408U 21104A   23020.28221134  .00024869  00000-0  15757-2 0  9999,2 49408  53.2179 326.5769 0001086  62.3536 297.7567 15.08826207 66961,6917.923000000001,95.438,540.539,539.036,0.0
49408.0,STARLINK-3151,PAYLOAD,2023-01-20 13:07:56,15.08824273,0.0001213,53.2178,325.3866,64.6074,295.5043,0.0011780999999999,0.00018503,0.0,0 STARLINK-3151,1 49408U 21104A   23020.54717629  .00018503  00000-0  11781-2 0  9998,2 49408  53.2178 325.3866 0001213  64.6074 295.5043 15.08824273 67001,6917.928000000001,95.439,540.633,538.9540000000001,0.0
49408.0,STARLINK-3151,PAYLOAD,2023-01-21 03:26:24,15.08861125,0.0001226,53.2179,322.7108,66.1981,293.9139,0.0019072,0.00030213,0.0,0 STARLINK-3151,1 49408U 21104A   23021.14333422  .00030213  00000-0  19072-2 0  9993,2 49408  53.2179 322.7108 0001226  66.1981 293.9139 15.08861125 67094,6917.816,95.436,540.529,538.8330000000001,0.0
49408.0,STARLINK-3151,PAYLOAD,2023-01-21 12:58:42,15.08857491,0.0001230999999999,53.2184,320.9255,77.8577,282.2553,0.00082828,0.00012925,0.0,0 STARLINK-3151,1 49408U 21104A   23021.54077240  .00012925  00000-0  82828-3 0  9990,2 49408  53.2184 320.9255 0001231  77.8577 282.2553 15.08857491 67158,6917.826999999999,95.436,540.544,538.84,0.0
49408.0,STARLINK-3151,PAYLOAD,2023-01-22 12:49:29,15.08866301,0.0001756,53.2186,316.4658,59.8804,300.2362,0.0016881,0.000267,0.0,0 STARLINK-3151,1 49408U 21104A   23022.53436806  .00026700  00000-0  16881-2 0  9998,2 49408  53.2186 316.4658 0001756  59.8804 300.2362 15.08866301 67308,6917.8,95.436,540.88,538.45,0.0
